ALOS (DAICHI)           
1 28931U 06002A   26099.81723207  .00001317  00000+0  22837-3 0  9993
2 28931  98.1265  55.6291 0001364 114.8587 245.2760 14.69911337 78052
H-2A R/B                
1 28932U 06002B   26099.68145660  .00009395  00000+0  46042-3 0  9998
2 28932  98.2474 249.3982 0052525 135.5947 224.9514 15.17164843 99139
RESURS-DK 1             
1 29228U 06021A   26099.54555026  .00001854  00000+0  11109-3 0  9992
2 29228  69.9321 157.2007 0002266  21.9284 338.1978 15.12934624 92196
CZ-4B R/B               
1 29507U 06046C   26099.08225250  .00003709  00000+0  18728-3 0  9996
2 29507  97.5535 143.9057 0033726 159.8192 200.4384 15.17233135 64657
CZ-2C R/B               
1 31114U 07010B   26099.79445330  .00000139  00000+0  82761-4 0  9999
2 31114  98.4012 211.5192 0058624 202.6985 157.1599 14.20258524984139
COSMO-SKYMED 1          
1 31598U 07023A   26099.81984796  .00003427  00000+0  30469-3 0  9996
2 31598  97.8890 291.1070 0001747  91.6939 268.4482 14.96781653 19560
COSMOS 2428             
1 31792U 07029A   26099.54291264 -.00000093  00000+0 -24296-4 0  9999
2 31792  70.9412 138.5875 0009656 244.7586 115.2534 14.12948837968456
SL-16 R/B               
1 31793U 07029B   26099.46993352 -.00000205  00000+0 -81339-4 0  9994
2 31793  70.9732 107.6825 0002903 274.6757 198.3297 14.14842936969728
KORONAS-FOTON           
1 33504U 09003A   26099.81285493  .00012724  00000+0  27551-3 0  9991
2 33504  82.4295 243.4963 0011110  47.9643 312.2548 15.44236724950541
CZ-2C R/B               
1 37731U 11030B   26099.87864267  .00001146  00000+0  15052-3 0  9997
2 37731  97.8593  56.5311 0051020 248.3445 124.0129 14.81331886794713
H-2A R/B                
1 38341U 12025E   26099.84540845  .00002438  00000+0  22294-3 0  9991
2 38341  98.4770  69.4016 0043665 209.2755 150.6017 14.95382763752873
SHIJIAN-16 (SJ-16)      
1 39358U 13057A   26099.86788413  .00000425  00000+0  44286-4 0  9993
2 39358  74.9705 126.0627 0015493  31.9305 328.2818 14.92450866676151
SL-4 R/B                
1 39679U 14021B   26099.52284831  .00014222  00000+0  30568-3 0  9996
2 39679  51.6055 186.7346 0093788 215.5810 143.8898 15.40340243661022
ALOS-2                  
1 39766U 14029A   26099.82995176  .00000266  00000+0  42472-4 0  9996
2 39766  97.9189 197.9742 0001820  93.6550 266.4870 14.79467174641479
YAOGAN-29               
1 41038U 15069A   26099.83130483  .00000386  00000+0  54076-4 0  9995
2 41038  98.0100 128.3383 0000561 168.3045 191.8181 14.83030255560497
ASTRO-H (HITOMI)        
1 41337U 16012A   26099.43586478  .00002538  00000+0  14577-3 0  9993
2 41337  30.9983 158.1032 0009659 280.5199  79.4351 15.10207775556881
HXMT (HUIYAN)           
1 42758U 17034A   26099.77608288  .00005580  00000+0  27874-3 0  9991
2 42758  43.0135 203.7904 0030345  70.4336 289.9785 15.17890615487265
