[{"OBJECT_NAME":"ALOS (DAICHI)","OBJECT_ID":"2006-002A","EPOCH":"2026-04-09T19:36:48.850848","MEAN_MOTION":14.69911337,"ECCENTRICITY":0.0001364,"INCLINATION":98.1265,"RA_OF_ASC_NODE":55.6291,"ARG_OF_PERICENTER":114.8587,"MEAN_ANOMALY":245.276,"EPHEMERIS_TYPE":0,"CLASSIFICATION_TYPE":"U","NORAD_CAT_ID":28931,"ELEMENT_SET_NO":999,"REV_AT_EPOCH":7805,"BSTAR":0.00022837,"MEAN_MOTION_DOT":1.317e-5,"MEAN_MOTION_DDOT":0},{"OBJECT_NAME":"H-2A R/B","OBJECT_ID":"2006-002B","EPOCH":"2026-04-09T16:21:17.850240","MEAN_MOTION":15.17164843,"ECCENTRICITY":0.0052525,"INCLINATION":98.2474,"RA_OF_ASC_NODE":249.3982,"ARG_OF_PERICENTER":135.5947,"MEAN_ANOMALY":224.9514,"EPHEMERIS_TYPE":0,"CLASSIFICATION_TYPE":"U","NORAD_CAT_ID":28932,"ELEMENT_SET_NO":999,"REV_AT_EPOCH":9913,"BSTAR":0.00046042,"MEAN_MOTION_DOT":9.395e-5,"MEAN_MOTION_DDOT":0},{"OBJECT_NAME":"RESURS-DK 1","OBJECT_ID":"2006-021A","EPOCH":"2026-04-09T13:05:35.542464","MEAN_MOTION":15.12934624,"ECCENTRICITY":0.0002266,"INCLINATION":69.9321,"RA_OF_ASC_NODE":157.2007,"ARG_OF_PERICENTER":21.9284,"MEAN_ANOMALY":338.1978,"EPHEMERIS_TYPE":0,"CLASSIFICATION_TYPE":"U","NORAD_CAT_ID":29228,"ELEMENT_SET_NO":999,"REV_AT_EPOCH":9219,"BSTAR":0.00011109,"MEAN_MOTION_DOT":1.854e-5,"MEAN_MOTION_DDOT":0},{"OBJECT_NAME":"CZ-4B R/B","OBJECT_ID":"2006-046C","EPOCH":"2026-04-09T01:58:26.616000","MEAN_MOTION":15.17233135,"ECCENTRICITY":0.00337264,"INCLINATION":97.5535,"RA_OF_ASC_NODE":143.9057,"ARG_OF_PERICENTER":159.8192,"MEAN_ANOMALY":200.4384,"EPHEMERIS_TYPE":0,"CLASSIFICATION_TYPE":"U","NORAD_CAT_ID":29507,"ELEMENT_SET_NO":999,"REV_AT_EPOCH":6465,"BSTAR":0.0001872821,"MEAN_MOTION_DOT":3.709e-5,"MEAN_MOTION_DDOT":0},{"OBJECT_NAME":"CZ-2C R/B","OBJECT_ID":"2007-010B","EPOCH":"2026-04-09T19:04:00.765120","MEAN_MOTION":14.20258524,"ECCENTRICITY":0.0058624,"INCLINATION":98.4012,"RA_OF_ASC_NODE":211.5192,"ARG_OF_PERICENTER":202.6985,"MEAN_ANOMALY":157.1599,"EPHEMERIS_TYPE":0,"CLASSIFICATION_TYPE":"U","NORAD_CAT_ID":31114,"ELEMENT_SET_NO":999,"REV_AT_EPOCH":98413,"BSTAR":8.2761e-5,"MEAN_MOTION_DOT":1.39e-6,"MEAN_MOTION_DDOT":0},{"OBJECT_NAME":"COSMO-SKYMED 1","OBJECT_ID":"2007-023A","EPOCH":"2026-04-09T19:40:34.863744","MEAN_MOTION":14.96781653,"ECCENTRICITY":0.0001747,"INCLINATION":97.889,"RA_OF_ASC_NODE":291.107,"ARG_OF_PERICENTER":91.6939,"MEAN_ANOMALY":268.4482,"EPHEMERIS_TYPE":0,"CLASSIFICATION_TYPE":"U","NORAD_CAT_ID":31598,"ELEMENT_SET_NO":999,"REV_AT_EPOCH":1956,"BSTAR":0.00030469,"MEAN_MOTION_DOT":3.427e-5,"MEAN_MOTION_DDOT":0},{"OBJECT_NAME":"COSMOS 2428","OBJECT_ID":"2007-029A","EPOCH":"2026-04-09T13:01:47.652096","MEAN_MOTION":14.12948837,"ECCENTRICITY":0.0009656,"INCLINATION":70.9412,"RA_OF_ASC_NODE":138.5875,"ARG_OF_PERICENTER":244.7586,"MEAN_ANOMALY":115.2534,"EPHEMERIS_TYPE":0,"CLASSIFICATION_TYPE":"U","NORAD_CAT_ID":31792,"ELEMENT_SET_NO":999,"REV_AT_EPOCH":96845,"BSTAR":-2.4296e-5,"MEAN_MOTION_DOT":-9.3e-7,"MEAN_MOTION_DDOT":0},{"OBJECT_NAME":"SL-16 R/B","OBJECT_ID":"2007-029B","EPOCH":"2026-04-09T11:16:42.256128","MEAN_MOTION":14.14842936,"ECCENTRICITY":0.0002903,"INCLINATION":70.9732,"RA_OF_ASC_NODE":107.6825,"ARG_OF_PERICENTER":274.6757,"MEAN_ANOMALY":198.3297,"EPHEMERIS_TYPE":0,"CLASSIFICATION_TYPE":"U","NORAD_CAT_ID":31793,"ELEMENT_SET_NO":999,"REV_AT_EPOCH":96972,"BSTAR":-8.1339e-5,"MEAN_MOTION_DOT":-2.05e-6,"MEAN_MOTION_DDOT":0},{"OBJECT_NAME":"KORONAS-FOTON","OBJECT_ID":"2009-003A","EPOCH":"2026-04-09T19:30:30.665952","MEAN_MOTION":15.44236724,"ECCENTRICITY":0.001111,"INCLINATION":82.4295,"RA_OF_ASC_NODE":243.4963,"ARG_OF_PERICENTER":47.9643,"MEAN_ANOMALY":312.2548,"EPHEMERIS_TYPE":0,"CLASSIFICATION_TYPE":"U","NORAD_CAT_ID":33504,"ELEMENT_SET_NO":999,"REV_AT_EPOCH":95054,"BSTAR":0.00027551,"MEAN_MOTION_DOT":0.00012724,"MEAN_MOTION_DDOT":0},{"OBJECT_NAME":"CZ-2C R/B","OBJECT_ID":"2011-030B","EPOCH":"2026-04-09T21:05:14.726688","MEAN_MOTION":14.81331886,"ECCENTRICITY":0.005102,"INCLINATION":97.8593,"RA_OF_ASC_NODE":56.5311,"ARG_OF_PERICENTER":248.3445,"MEAN_ANOMALY":124.0129,"EPHEMERIS_TYPE":0,"CLASSIFICATION_TYPE":"U","NORAD_CAT_ID":37731,"ELEMENT_SET_NO":999,"REV_AT_EPOCH":79471,"BSTAR":0.00015052,"MEAN_MOTION_DOT":1.146e-5,"MEAN_MOTION_DDOT":0},{"OBJECT_NAME":"H-2A R/B","OBJECT_ID":"2012-025E","EPOCH":"2026-04-09T20:17:23.290080","MEAN_MOTION":14.95382763,"ECCENTRICITY":0.0043665,"INCLINATION":98.477,"RA_OF_ASC_NODE":69.4016,"ARG_OF_PERICENTER":209.2755,"MEAN_ANOMALY":150.6017,"EPHEMERIS_TYPE":0,"CLASSIFICATION_TYPE":"U","NORAD_CAT_ID":38341,"ELEMENT_SET_NO":999,"REV_AT_EPOCH":75287,"BSTAR":0.00022294,"MEAN_MOTION_DOT":2.438e-5,"MEAN_MOTION_DDOT":0},{"OBJECT_NAME":"SHIJIAN-16 (SJ-16)","OBJECT_ID":"2013-057A","EPOCH":"2026-04-09T20:49:45.188832","MEAN_MOTION":14.92450866,"ECCENTRICITY":0.0015493,"INCLINATION":74.9705,"RA_OF_ASC_NODE":126.0627,"ARG_OF_PERICENTER":31.9305,"MEAN_ANOMALY":328.2818,"EPHEMERIS_TYPE":0,"CLASSIFICATION_TYPE":"U","NORAD_CAT_ID":39358,"ELEMENT_SET_NO":999,"REV_AT_EPOCH":67615,"BSTAR":4.4286e-5,"MEAN_MOTION_DOT":4.25e-6,"MEAN_MOTION_DDOT":0},{"OBJECT_NAME":"SL-4 R/B","OBJECT_ID":"2014-021B","EPOCH":"2026-04-09T12:32:54.093984","MEAN_MOTION":15.40340243,"ECCENTRICITY":0.00937882,"INCLINATION":51.6055,"RA_OF_ASC_NODE":186.7346,"ARG_OF_PERICENTER":215.581,"MEAN_ANOMALY":143.8898,"EPHEMERIS_TYPE":0,"CLASSIFICATION_TYPE":"U","NORAD_CAT_ID":39679,"ELEMENT_SET_NO":999,"REV_AT_EPOCH":66102,"BSTAR":0.00030568047,"MEAN_MOTION_DOT":0.00014222,"MEAN_MOTION_DDOT":0},{"OBJECT_NAME":"ALOS-2","OBJECT_ID":"2014-029A","EPOCH":"2026-04-09T19:55:07.832064","MEAN_MOTION":14.79467174,"ECCENTRICITY":0.000182,"INCLINATION":97.9189,"RA_OF_ASC_NODE":197.9742,"ARG_OF_PERICENTER":93.655,"MEAN_ANOMALY":266.487,"EPHEMERIS_TYPE":0,"CLASSIFICATION_TYPE":"U","NORAD_CAT_ID":39766,"ELEMENT_SET_NO":999,"REV_AT_EPOCH":64147,"BSTAR":4.2472e-5,"MEAN_MOTION_DOT":2.66e-6,"MEAN_MOTION_DDOT":0},{"OBJECT_NAME":"YAOGAN-29","OBJECT_ID":"2015-069A","EPOCH":"2026-04-09T19:57:04.737312","MEAN_MOTION":14.83030255,"ECCENTRICITY":5.61e-5,"INCLINATION":98.01,"RA_OF_ASC_NODE":128.3383,"ARG_OF_PERICENTER":168.3045,"MEAN_ANOMALY":191.8181,"EPHEMERIS_TYPE":0,"CLASSIFICATION_TYPE":"U","NORAD_CAT_ID":41038,"ELEMENT_SET_NO":999,"REV_AT_EPOCH":56049,"BSTAR":5.4076e-5,"MEAN_MOTION_DOT":3.86e-6,"MEAN_MOTION_DDOT":0},{"OBJECT_NAME":"ASTRO-H (HITOMI)","OBJECT_ID":"2016-012A","EPOCH":"2026-04-09T10:27:38.716992","MEAN_MOTION":15.10207775,"ECCENTRICITY":0.0009659,"INCLINATION":30.9983,"RA_OF_ASC_NODE":158.1032,"ARG_OF_PERICENTER":280.5199,"MEAN_ANOMALY":79.4351,"EPHEMERIS_TYPE":0,"CLASSIFICATION_TYPE":"U","NORAD_CAT_ID":41337,"ELEMENT_SET_NO":999,"REV_AT_EPOCH":55688,"BSTAR":0.00014577,"MEAN_MOTION_DOT":2.538e-5,"MEAN_MOTION_DDOT":0},{"OBJECT_NAME":"HXMT (HUIYAN)","OBJECT_ID":"2017-034A","EPOCH":"2026-04-09T18:37:33.560832","MEAN_MOTION":15.17890615,"ECCENTRICITY":0.0030345,"INCLINATION":43.0135,"RA_OF_ASC_NODE":203.7904,"ARG_OF_PERICENTER":70.4336,"MEAN_ANOMALY":289.9785,"EPHEMERIS_TYPE":0,"CLASSIFICATION_TYPE":"U","NORAD_CAT_ID":42758,"ELEMENT_SET_NO":999,"REV_AT_EPOCH":48726,"BSTAR":0.00027874,"MEAN_MOTION_DOT":5.58e-5,"MEAN_MOTION_DDOT":0}]
